{"type":"FeatureCollection","features":[{"type":"Feature","geometry":{"coordinates":[[[-8.688013513628565,41.25640579156635],[-8.688099945234462,41.256088248716694],[-8.688131757304962,41.25580203441643],[-8.687727949501634,41.25564254979352],[-8.68734975915556,41.25538091767601],[-8.687095556464966,41.255176491019775],[-8.686923650038816,41.254982474784754],[-8.68680404987254,41.25475164797824],[-8.686707962503858,41.25439527884121],[-8.686637154730247,41.25402285336845],[-8.686461139583896,41.253850284303375],[-8.685125287891491,41.25312774962084],[-8.684860410658517,41.25301395029356],[-8.684873710167341,41.252808593868316],[-8.684854598571563,41.25249534524391],[-8.684858346949493,41.25223268241598],[-8.684835324600796,41.25210619299742],[-8.684813243280756,41.25180862584116],[-8.684828872867906,41.251511234532174],[-8.684912820139251,41.251209288343496],[-8.684918783069392,41.25078489424037],[-8.684929844021537,41.2504842841546],[-8.684906695028827,41.2502723527785],[-8.68485421360593,41.2500330991811],[-8.684782423108492,41.24978339776525],[-8.684789034122012,41.24968981706914],[-8.684913454375554,41.24958954177409],[-8.685031659435156,41.249515051719136],[-8.685171582835217,41.24952716324903],[-8.685362693146452,41.24951102247559],[-8.685508852379876,41.24945566771194],[-8.685630045597579,41.24932614440828],[-8.685694034014247,41.2492041916274],[-8.685672896196762,41.249102904997564],[-8.685748930814306,41.24893821811192],[-8.685894478319593,41.248923288301484],[-8.686068558389673,41.24893928933795],[-8.686444515494937,41.24901310935722],[-8.686505994841195,41.2490177634848],[-8.686620273254647,41.24895940636709],[-8.68681060829638,41.24875346760162],[-8.687093454849743,41.24852564896352],[-8.687554224418683,41.24816281054257],[-8.687666136845316,41.24810725687492],[-8.688068734276749,41.247960882669865],[-8.688308681514433,41.24785248237952],[-8.688454811679215,41.24782260316885],[-8.688566641577538,41.247771550217784],[-8.688584582693728,41.24773481570589],[-8.689211440384174,41.24734766468971],[-8.689280100142048,41.24724297627359],[-8.689492923581671,41.24711552379481],[-8.689583886278657,41.247023783497134],[-8.689603364330713,41.24681704404565],[-8.689866409175478,41.24664811522933],[-8.690807930464661,41.24656439289635],[-8.691063465853354,41.246550275286204],[-8.691605353732996,41.24645543794693],[-8.691776715897474,41.24641921833323],[-8.691924627599473,41.24634709641055],[-8.692180845372945,41.24614793774855],[-8.692368651749918,41.24612316367346],[-8.692548850675054,41.24607410863148],[-8.692725993238998,41.245891006532155],[-8.692944697252456,41.24568563460552],[-8.69334241612954,41.24543310801482],[-8.693445066817791,41.245299707504444],[-8.693494262459026,41.24519376244447],[-8.693470625621899,41.2451223859809],[-8.693325886418869,41.24503521386731],[-8.693176004532882,41.24497471359845],[-8.6931224726923,41.24488106382768],[-8.693057206643003,41.244628638897815],[-8.692936296510606,41.24456566172459],[-8.692893524563766,41.24451643754716],[-8.693034590956364,41.24416126005505],[-8.693200656440348,41.243953441398425],[-8.693284465609,41.24380743853528],[-8.693368375367639,41.2437433706052],[-8.693486218880508,41.2437409035536],[-8.693658255904197,41.243770226598734],[-8.693739458382977,41.24373867582688],[-8.693857366195033,41.24354892259667],[-8.693886521870233,41.24344298489273],[-8.693983792435702,41.24330924719629],[-8.693938666736829,41.24320880368178],[-8.693665362080429,41.24306913333989],[-8.693478789596337,41.24295839395372],[-8.692969113583999,41.24260378122707],[-8.692685991941582,41.2424172488997],[-8.69246730746092,41.242220132661295],[-8.69242591896714,41.242080682192714],[-8.692456182072748,41.24185399582898],[-8.692453430889659,41.24169922700184],[-8.692478448713283,41.241486699090906],[-8.692468413094822,41.241122443299204],[-8.692446850983494,41.24076355505561],[-8.692457140784677,41.240725055329335],[-8.692632578407803,41.24059517363767],[-8.692870779042465,41.240369988644915],[-8.693080519055899,41.240095602142375],[-8.693294042101048,41.23985820501524],[-8.69338769034148,41.23978994412083],[-8.693226859385762,41.23808778762843],[-8.692599953028877,41.237508464183996],[-8.692445320525932,41.23718272921933],[-8.692199674411457,41.23708019826813],[-8.691499443483762,41.236753880081054],[-8.691308247065502,41.236573647863516],[-8.691195608924385,41.23659787402217],[-8.690746498609625,41.236484088309275],[-8.690666875779518,41.236602246230035],[-8.69052811425685,41.23661228333848],[-8.688568486355004,41.23652004263149],[-8.687331637156948,41.236489827243425],[-8.68672925458531,41.23648841387658],[-8.686347763690591,41.23642884506021],[-8.685586409365172,41.236444940848386],[-8.68558863872926,41.23642637967954],[-8.669938151010765,41.23412531244579],[-8.669695910550223,41.23417056581145],[-8.669401540043879,41.233924512155774],[-8.668840751136072,41.23339192910324],[-8.667921118214933,41.232836160661485],[-8.668408990723973,41.232316060133876],[-8.669225236550103,41.23188653416113],[-8.668808273845876,41.23103003398056],[-8.668947203985942,41.230983101358106],[-8.668962076983997,41.230906226139325],[-8.668555798352175,41.23040605778581],[-8.668316760098241,41.229427436692774],[-8.668236447377042,41.22859151110484],[-8.668152335947186,41.22812179585624],[-8.66802965946388,41.22793814745003],[-8.6680056778856,41.22779131078188],[-8.668046270410102,41.22740250339579],[-8.667974139285477,41.227084637180255],[-8.667846058421757,41.226473763925284],[-8.667738510965737,41.22612670278075],[-8.667886026629738,41.22523542024615],[-8.667979996361417,41.22494334037573],[-8.66799100383412,41.22480147351101],[-8.667918645697522,41.224718524959826],[-8.667812500021572,41.22467381755489],[-8.66726541991316,41.22459658722799],[-8.66715641284185,41.22449444819368],[-8.666560929266511,41.22368802233101],[-8.66655179826404,41.22365024865323],[-8.666545318267696,41.22303160319114],[-8.666400335766816,41.22293341363588],[-8.66602520983727,41.222735262602136],[-8.66596189613155,41.22272223383065],[-8.665743652494488,41.22276511410971],[-8.665573701087418,41.22304251107076],[-8.665471375639031,41.22315878043004],[-8.665200152454371,41.22353659106352],[-8.66509713624478,41.2237148096976],[-8.66450160328438,41.22352983198803],[-8.664252904304615,41.223949583498104],[-8.664187668579052,41.22403812676627],[-8.663995085575552,41.22418704348301],[-8.663701641361223,41.224457805319645],[-8.663592124948819,41.22451224794768],[-8.66344062043852,41.224536631436386],[-8.663296044009643,41.22457655564695],[-8.663219522288722,41.22483172591263],[-8.66313984554862,41.22496328434125],[-8.66302887261348,41.2253085662055],[-8.662866586303382,41.22542978773593],[-8.662523094689202,41.22560470161888],[-8.662378182458946,41.22572107303625],[-8.662058955750268,41.22615348322292],[-8.661433746783707,41.22651787868308],[-8.661062962964667,41.22651877521128],[-8.660931401083381,41.22647255814151],[-8.660672020897332,41.2264159450337],[-8.66041937171524,41.226394868125965],[-8.659243094802571,41.226189663123],[-8.659090423726516,41.226158307330415],[-8.658918462986039,41.22614496324004],[-8.658769141171282,41.226159779828734],[-8.658310181757786,41.22622959577239],[-8.658224610075566,41.22626663054959],[-8.657801964075448,41.22620931921224],[-8.65783996909246,41.226293784900825],[-8.657847322284589,41.22646689824213],[-8.65539493636682,41.226350684549715],[-8.654606984939605,41.22621875737424],[-8.654163783251418,41.226245983658565],[-8.653476705199575,41.22621614684301],[-8.65252428477484,41.22585714775523],[-8.652450072590234,41.225778425322815],[-8.652306792161097,41.225667063290736],[-8.652053014193843,41.22551820484189],[-8.65167278592577,41.22523008320369],[-8.65153269919515,41.22532615704786],[-8.65139863911044,41.225399965840374],[-8.650574782096706,41.225641304451834],[-8.650135977289851,41.225741336116464],[-8.649979949642036,41.225722411847904],[-8.649842017943373,41.225669100937175],[-8.649566406038957,41.2255934466496],[-8.649347491140091,41.22556993947076],[-8.649211736726409,41.2256555515608],[-8.649154968527615,41.225746564147926],[-8.649180820907056,41.22586422365585],[-8.649166707814208,41.225995204848864],[-8.649044953307587,41.22620834126807],[-8.64894039051006,41.22633352103575],[-8.648638043598515,41.22651279686434],[-8.648434995804909,41.22658079356115],[-8.648270205107444,41.22666013966584],[-8.648134681107361,41.22676114127779],[-8.648030592767526,41.22694682562397],[-8.647785817927186,41.227183198694064],[-8.647741700192181,41.22724525854387],[-8.647755821808808,41.227312093264686],[-8.647814456253863,41.22739674108855],[-8.648000346586842,41.22754303105872],[-8.648053011910951,41.227642381442756],[-8.6480421581337,41.227763627819336],[-8.647911851124007,41.22808835733381],[-8.647735647842866,41.22841591024296],[-8.64763526512127,41.228647851255296],[-8.64763240460108,41.22872385972812],[-8.647667079083606,41.228795739516464],[-8.647864640495472,41.22902967959518],[-8.647861347881413,41.22923273785625],[-8.647744797336781,41.229684007745384],[-8.64772668371269,41.22989847304269],[-8.647827495208599,41.23005343270928],[-8.64786310667823,41.23027369428186],[-8.647830747156071,41.23054180470381],[-8.647832244378105,41.23065650914638],[-8.647930116722033,41.2308773882668],[-8.647996711107643,41.23100350892991],[-8.648043162666129,41.23116213213874],[-8.648124796534248,41.23133518391522],[-8.648279708821814,41.23154419392803],[-8.648548480698922,41.23177709465335],[-8.648846277521494,41.23206127435583],[-8.64919562012137,41.23251297002427],[-8.649208648911486,41.232667241300156],[-8.6491394961381,41.23277659235883],[-8.648991501084476,41.23291610060488],[-8.648764400568913,41.233097293215934],[-8.64838869327517,41.23335605193547],[-8.648154370082986,41.2335743721456],[-8.64804568793148,41.23381454698249],[-8.648010299786094,41.23401541021028],[-8.647961445319165,41.23447582984888],[-8.647939371555285,41.23473245695846],[-8.64800437016341,41.23508016858637],[-8.647947084781148,41.23518190497944],[-8.6477298470743,41.2353447701303],[-8.64734239405523,41.23556746913742],[-8.647071526182424,41.23582800267473],[-8.646953517772024,41.23595953982158],[-8.646572557706152,41.23617455366291],[-8.646289492757283,41.23643162808535],[-8.646132150261492,41.23655154685506],[-8.645941408422408,41.236611106730265],[-8.645699825373157,41.23662182234941],[-8.645169287733484,41.23653423978927],[-8.6446866900807,41.236413756490784],[-8.64456169029973,41.236399728551504],[-8.64435643607534,41.23640379334249],[-8.64420214279819,41.23638025965935],[-8.643866706811602,41.236255606175085],[-8.643414742577828,41.23623951971669],[-8.64304139964948,41.23625621885127],[-8.642720781844991,41.23611933980261],[-8.642059209320127,41.235777332285856],[-8.641213988071462,41.23542505538098],[-8.641092968146046,41.235353919355695],[-8.640914228484036,41.2351930856095],[-8.640816844550523,41.2350329742986],[-8.640805725319469,41.23495297760819],[-8.640829352244365,41.234846443546104],[-8.640980828598298,41.23467694819939],[-8.641070553614274,41.23451105213775],[-8.641070852113886,41.234380585060265],[-8.641012287717537,41.234258298648214],[-8.640980487987045,41.23406520831617],[-8.641139206539593,41.2336298797631],[-8.641163849905185,41.2333480307113],[-8.641303728250897,41.233005886875375],[-8.641268272662787,41.23286395580538],[-8.641231210284225,41.23259228724895],[-8.641236263159998,41.232444149067895],[-8.64130243596512,41.23225684200223],[-8.641238752521106,41.231889936163675],[-8.641234074086322,41.23165665913489],[-8.641292652893254,41.23155141315562],[-8.641573644995395,41.231319300761164],[-8.64162107685888,41.23123760576147],[-8.641617884884552,41.231149379343066],[-8.641559235902363,41.231107676834576],[-8.640906518995427,41.230884208884504],[-8.640755049788341,41.23079357479615],[-8.640576468800267,41.230665877037815],[-8.640417314105392,41.23056807569014],[-8.640157917875728,41.230324583260405],[-8.639924774374613,41.23015912868563],[-8.639777432906657,41.23013789772626],[-8.639522261910187,41.230131372034734],[-8.639403771961925,41.230154762919824],[-8.639169374258445,41.23016615266268],[-8.638865804187692,41.23016290235121],[-8.638669916902092,41.23014179494546],[-8.638302800490456,41.230032749620705],[-8.638173698706138,41.23001135194323],[-8.637991662737644,41.23005330046792],[-8.637649195296715,41.229939285394494],[-8.637049895593943,41.22981982230556],[-8.636752572534746,41.22965140241728],[-8.636628268044168,41.22966329406816],[-8.63614721677407,41.22956537039989],[-8.63577882462812,41.22944560754655],[-8.635573109668265,41.22929326059533],[-8.635541789628006,41.22917598389788],[-8.635633465327787,41.22893706178676],[-8.635723402193129,41.2288145754908],[-8.635938073857734,41.228642911752814],[-8.636108346503251,41.22845145937414],[-8.636188049850324,41.228315598402645],[-8.636230041884733,41.22819332025641],[-8.636385926613764,41.2279303421722],[-8.636445602274126,41.22781185756976],[-8.636530985528854,41.22774854383225],[-8.63674997721888,41.22764259686997],[-8.636803565082056,41.22752386587559],[-8.636864998234495,41.227339732503786],[-8.636909834309115,41.22724607150895],[-8.637019867789718,41.22711584174464],[-8.63704469663635,41.22705666441755],[-8.637216135330917,41.226847014902354],[-8.637234802224068,41.22665424437929],[-8.637213608111365,41.22651936909917],[-8.637154284246549,41.2263589059106],[-8.637070026658604,41.22624294358949],[-8.636960730902278,41.22612789664216],[-8.636515575127246,41.22574744723439],[-8.636398988827692,41.225692672650844],[-8.636184046111401,41.22565733473318],[-8.635673302937876,41.225587085350426],[-8.63527408999178,41.22556596612272],[-8.634792573984015,41.22551179659578],[-8.63461044216608,41.225478198271624],[-8.63425868938565,41.225393924701415],[-8.634044927848379,41.225309771081555],[-8.633794899859787,41.22517850071344],[-8.633584606359758,41.22509541346414],[-8.633047501578002,41.224914792200245],[-8.632974822794678,41.22490799527006],[-8.632510323908793,41.22478611958748],[-8.63223898751003,41.22476821154469],[-8.632031217588885,41.22470257963148],[-8.631861083560592,41.224678554997496],[-8.63167448448736,41.22510642954563],[-8.631728868834152,41.22523117468132],[-8.631829793847585,41.22528205636823],[-8.631721417110377,41.22547386843225],[-8.631569911800117,41.22556204373995],[-8.631412032120432,41.225706075399486],[-8.630237158706999,41.22611104787251],[-8.63012388786954,41.226130628509495],[-8.6300198633492,41.22612702824826],[-8.629552957816161,41.226253936294086],[-8.629406062983865,41.226321560114684],[-8.629200646366387,41.22644085367302],[-8.627903765707623,41.226848941817394],[-8.62767766827642,41.22693176342061],[-8.627385468078915,41.22686837393479],[-8.627175840395905,41.22684217260891],[-8.626851696145446,41.22682781542227],[-8.626491906606608,41.22673707225269],[-8.625695159787929,41.22645956643441],[-8.625189647072807,41.226497570942996],[-8.624770712659686,41.226487125480155],[-8.624500738130056,41.226364564170055],[-8.624334428593581,41.226325568671996],[-8.62416964387333,41.22625171823304],[-8.623922113977653,41.22603641074258],[-8.623706681525192,41.225809076768904],[-8.622396189235884,41.22561262272546],[-8.622566533039533,41.22512369438236],[-8.622750333065085,41.22469584641903],[-8.623122984124652,41.22397518534115],[-8.623293878377677,41.22368821138092],[-8.623752123390974,41.22296475262107],[-8.62382731196544,41.22287664267259],[-8.623820548332555,41.22265913170024],[-8.623900353142476,41.222216777811305],[-8.62387445780029,41.22184942679859],[-8.623679006092454,41.22129425833789],[-8.623758882676725,41.22097328226478],[-8.623613077948884,41.2205977141466],[-8.6235862014494,41.22048005308874],[-8.623584507200084,41.22025423921344],[-8.623146915692855,41.21994447694162],[-8.622890658988414,41.21985147817517],[-8.622854925018766,41.21987324034858],[-8.622787571147374,41.22001939558273],[-8.62277945924918,41.220178438771725],[-8.622697369399264,41.22036274366871],[-8.622559880253238,41.22050731143476],[-8.62250835480921,41.22064961382795],[-8.622220098336854,41.220965626075404],[-8.621885455049899,41.221265991519324],[-8.621778174378473,41.22140061187989],[-8.621663798681622,41.22157496555626],[-8.621450225097503,41.22181538707892],[-8.621276448367636,41.221940022299215],[-8.620801622343851,41.22229869504642],[-8.62039891127128,41.222380724947776],[-8.62061118665892,41.222636622091095],[-8.620672069841081,41.22269308835525],[-8.621011872529838,41.22284192182283],[-8.621015353400152,41.222893228556686],[-8.62127010331685,41.223230428372986],[-8.621398657773833,41.22327841529071],[-8.62171669470414,41.22332235309196],[-8.621608366525784,41.22355628817834],[-8.620671761399347,41.22407495087205],[-8.619912356585365,41.224512355434136],[-8.619519691949705,41.224712381764306],[-8.619335066569304,41.224710467419996],[-8.618105052297095,41.224651384089334],[-8.618169671974025,41.224407548096956],[-8.618294649729808,41.223972931614384],[-8.617894561110228,41.22396003789589],[-8.617387589998401,41.224088866185575],[-8.616922353096784,41.22370149191133],[-8.616327191482855,41.223224891403305],[-8.616069229738772,41.22252987354101],[-8.615913980132648,41.22212938907414],[-8.61579241710776,41.221703375700095],[-8.615666033659798,41.22135175653711],[-8.615253138783624,41.22137924359943],[-8.614827462366367,41.221387965577236],[-8.61446180187875,41.22136798260746],[-8.614213738406386,41.220733873206505],[-8.614127475461657,41.22043584001474],[-8.614069519110979,41.2199989303502],[-8.614051465016383,41.21966810321622],[-8.61400976566569,41.219284342479824],[-8.614010373581378,41.218344938212475],[-8.61403121018525,41.21798450826046],[-8.614050874248202,41.21746452602838],[-8.61407994396009,41.217168977789214],[-8.614115799342986,41.21672573232866],[-8.614208093017975,41.21615790770047],[-8.614252401149129,41.215309082347545],[-8.61412323804181,41.21485221473339],[-8.613779573268811,41.21373110785816],[-8.613350645686511,41.212494834269386],[-8.61303288659316,41.211619342045616],[-8.613105201593166,41.21120475995842],[-8.612759223802168,41.21111346301435],[-8.61270587376561,41.21071543566972],[-8.61268819088928,41.21053173049644],[-8.612583684295132,41.21016642057569],[-8.612529321365102,41.20977703689082],[-8.612502961435219,41.209190529560075],[-8.612473097147676,41.20874278889352],[-8.612442170573265,41.20847666416533],[-8.612532448147556,41.20802400853638],[-8.612464082288662,41.207871135941225],[-8.612505977757005,41.20764963754239],[-8.612682560658648,41.20716267363135],[-8.612917315641917,41.20683637335043],[-8.61354462658419,41.20625973222872],[-8.614272700763703,41.20575109824293],[-8.614573444248823,41.2056129709811],[-8.614719688535175,41.20552537821955],[-8.614780884001743,41.20527156561041],[-8.61456829596942,41.20525381663466],[-8.614133873112637,41.205355408342285],[-8.61356719371059,41.2052251491196],[-8.613248928776407,41.20541341056465],[-8.612989810480277,41.20555352015369],[-8.612318370014075,41.20572092137469],[-8.611785469954096,41.20590602068175],[-8.611436187284788,41.206043619240816],[-8.611248674172048,41.20617793576384],[-8.611026708595992,41.20637803158947],[-8.610960823622273,41.206499232339524],[-8.610908556201794,41.2066557624318],[-8.610909421098649,41.20677416408949],[-8.610938750261452,41.20690477989104],[-8.610883218269885,41.20702332549072],[-8.61074996667359,41.20714309656481],[-8.610597630630496,41.207214322660974],[-8.61037447697293,41.20726873485805],[-8.61001970688544,41.207308661828854],[-8.609559617315373,41.207408989218344],[-8.609336327075908,41.207412709536925],[-8.60919342900864,41.20738763731037],[-8.609012974264347,41.207330580277706],[-8.60860832785232,41.20721718891636],[-8.60831441626588,41.20711747054254],[-8.608168023403689,41.20703766910425],[-8.608002017219482,41.20698270920141],[-8.607500765772949,41.20680001921742],[-8.607317920895012,41.206708573052005],[-8.607208360288778,41.20662699884424],[-8.607114254553913,41.20644136429405],[-8.6070000366413,41.20604700157241],[-8.606929998022315,41.20585883305739],[-8.606677752212162,41.2055673308265],[-8.606602051619149,41.20540394982825],[-8.606409395538865,41.20491086641461],[-8.606331956783547,41.20480340709973],[-8.606187355205595,41.204673623823204],[-8.605958540406913,41.204488810781406],[-8.605767392445559,41.20428727392353],[-8.605555241674788,41.20411454654045],[-8.605293489934784,41.204024233873334],[-8.60509676997109,41.20402306654914],[-8.604472886961716,41.20425640497155],[-8.603906105978233,41.20437380796096],[-8.603441453655282,41.20431772714653],[-8.602859093320909,41.20397579590201],[-8.60259573621945,41.20376086356811],[-8.602485609858622,41.20368252685669],[-8.60160492195957,41.20273520100359],[-8.601563422712386,41.20265036943843],[-8.601463441687503,41.20218994524492],[-8.601434887543025,41.20164918424284],[-8.601547134989808,41.20160748812404],[-8.60192842918739,41.20141278665523],[-8.601675119573844,41.2007516554178],[-8.601303994136943,41.200650258482426],[-8.601104169264257,41.200681236827094],[-8.600382653135672,41.200545693360645],[-8.600450729320121,41.19996203692492],[-8.6002438546096,41.19987382839245],[-8.600087743670981,41.19983169116638],[-8.600229537705774,41.19930473206011],[-8.599776293139703,41.199239135589885],[-8.59979734458741,41.19899818840285],[-8.599650454697079,41.198978348333334],[-8.59944012904763,41.19889060523215],[-8.599026336063776,41.19877252755363],[-8.598937374328592,41.19856804806111],[-8.598786165846956,41.19842684479655],[-8.598622881544946,41.19834872013614],[-8.598439124087054,41.19830849956534],[-8.598305708875095,41.198305886154905],[-8.597666757110257,41.19824229735089],[-8.59737083734669,41.198237191257796],[-8.59729579421971,41.1978259159599],[-8.597293990193766,41.197705896999125],[-8.59734400975919,41.19729645506585],[-8.597442596415611,41.19712804033029],[-8.597494646185243,41.197003839628124],[-8.597503191465373,41.19684785451673],[-8.597395035478883,41.19677626169339],[-8.59719519662399,41.196702423412205],[-8.596940135917862,41.19655812624186],[-8.596672964436165,41.196453857189915],[-8.596577961718554,41.196370325887635],[-8.596485405627526,41.19626264956662],[-8.596408739720035,41.196143024485465],[-8.596305576968431,41.19601810244879],[-8.596361070548424,41.19579106390254],[-8.596329146794282,41.19559210837091],[-8.596426983923847,41.195436571803285],[-8.596466533578736,41.195264793623906],[-8.596555874219257,41.19513684515152],[-8.596482002989298,41.194974344823905],[-8.596501699568947,41.19487747035053],[-8.596377954301998,41.19455562357933],[-8.596366574052874,41.19431237250353],[-8.596401229073562,41.19425749060906],[-8.596441065796155,41.19412532833272],[-8.596301295106443,41.19359446353223],[-8.596254833075053,41.193312103779654],[-8.596230758087412,41.193229000924696],[-8.596151176152398,41.19310047037847],[-8.59612576727467,41.19284494513823],[-8.596135255759865,41.192704169876016],[-8.59616097964393,41.192632574157834],[-8.596277804933086,41.192465796871645],[-8.596276836171123,41.192329025533475],[-8.59629442200403,41.19221991730121],[-8.59635631148963,41.19203805174911],[-8.596363561676492,41.19179949970479],[-8.59634185124758,41.19169649234845],[-8.596291300281575,41.1915936874203],[-8.596016855942853,41.19135096440739],[-8.595789264566562,41.19124490881414],[-8.595752514352686,41.19117185511918],[-8.595636757250217,41.19105229549124],[-8.595460665887405,41.190507442086066],[-8.595447869897782,41.190299050264045],[-8.595668693059281,41.18922962974941],[-8.595690921817294,41.18879959595394],[-8.595977012520951,41.188752518285725],[-8.59595028677558,41.18849582484358],[-8.596044580189577,41.18841287822833],[-8.596238763417004,41.188313586883034],[-8.59633748787737,41.18816704914087],[-8.596463593522959,41.18808189963217],[-8.59662997722503,41.18819837517763],[-8.596682562350834,41.18810064784967],[-8.59671538465278,41.18748480788885],[-8.596816341086244,41.18708020102447],[-8.596860110905027,41.18669734461145],[-8.596934729498212,41.185201717291285],[-8.596944563718768,41.18423435945654],[-8.59688286619633,41.18375243714949],[-8.596829887139194,41.183508096163095],[-8.596411848085673,41.18265897669141],[-8.596360061855277,41.18249828338248],[-8.596229398346175,41.18224101906148],[-8.596059095294414,41.18193925884083],[-8.595495751042325,41.18177522033386],[-8.594409162846988,41.18141943293613],[-8.593015780543109,41.18085578237728],[-8.59117946887738,41.18009255436227],[-8.59027587960154,41.17987528219137],[-8.589842171559372,41.17980498097753],[-8.589620005008804,41.17978470253201],[-8.589521177155722,41.17976375757859],[-8.589117801503285,41.17973582749641],[-8.588855589872306,41.179699414608585],[-8.588508756049157,41.17966198599978],[-8.587807303419728,41.17963208431545],[-8.587535460827239,41.17964981607714],[-8.587184964042347,41.17968515190484],[-8.586622998967623,41.17985170382837],[-8.586355675613364,41.17998836472241],[-8.585959008608752,41.18025924770577],[-8.585540117466985,41.18048708684919],[-8.585312638958964,41.18063033932259],[-8.585104844310667,41.18077612624993],[-8.584536796579691,41.18113456838495],[-8.58441135149854,41.18122789807733],[-8.584264983198,41.18131319850712],[-8.584110501906933,41.1813613490063],[-8.584106610644252,41.18151615019677],[-8.583989594746173,41.18151660834417],[-8.58389775547588,41.181496430796805],[-8.583797344425534,41.18175073188988],[-8.583706590279832,41.182069045483196],[-8.583663399478246,41.18213223383451],[-8.583535095070484,41.18210302865215],[-8.583482142237472,41.18223884337843],[-8.58323593759292,41.182799317612236],[-8.58301690258692,41.18340512809581],[-8.582728808913634,41.183988696944525],[-8.58280704342606,41.18410065903838],[-8.582371662205937,41.1848506729985],[-8.582434828233497,41.184869559841005],[-8.582294354135534,41.1852665683845],[-8.582222301770383,41.18544282956667],[-8.582044437661214,41.185955244998155],[-8.581899759099445,41.186268708515705],[-8.581665308238417,41.18671615710976],[-8.581606477567112,41.186954320495914],[-8.581518429583475,41.18742255764508],[-8.580977847551269,41.18730732687975],[-8.580977551548907,41.18789727295986],[-8.581005462329315,41.18830411933308],[-8.580990145873775,41.1885910037746],[-8.580666293036282,41.18859552408698],[-8.580677416850179,41.188960529702065],[-8.580641061638524,41.18932897935457],[-8.580600835821194,41.189545148857746],[-8.580419521092745,41.19039185771062],[-8.580225179281573,41.191128395108755],[-8.580055921714955,41.19164077358911],[-8.57994979936136,41.19191171321521],[-8.579531604588633,41.19277382257311],[-8.579321610305243,41.193111225078745],[-8.579171747026557,41.1932574131883],[-8.578406782543953,41.1938579066192],[-8.577766435072878,41.19450158017716],[-8.577346662430266,41.19501492226463],[-8.57658752210906,41.1960763521582],[-8.576375935415097,41.1964924977919],[-8.575876075808353,41.19636211065666],[-8.575672966036391,41.19656258132247],[-8.575697396974101,41.1967598921174],[-8.575244757975003,41.19653677916333],[-8.575072610588823,41.19643327647528],[-8.575004304568246,41.196465240895776],[-8.574463267898984,41.1964684933405],[-8.574259930582325,41.19648964011786],[-8.574164677773682,41.1965303126596],[-8.574067392677243,41.19660230352738],[-8.574029291677984,41.197067368879736],[-8.573807472808427,41.19701111899712],[-8.573545827837412,41.19692743365405],[-8.573205959074643,41.196790469328974],[-8.572914080812009,41.19663776492301],[-8.572649615452265,41.196474585809455],[-8.572345711165994,41.19623551075327],[-8.572168605289685,41.19606458227142],[-8.571965962545525,41.195847317485594],[-8.571815791331286,41.19563831470113],[-8.571721524459685,41.1954877797988],[-8.571576069166209,41.19518082351997],[-8.57126913291403,41.195299508524926],[-8.571470695470113,41.19556273658916],[-8.571488906953252,41.19562973124884],[-8.571492354869246,41.19589941111932],[-8.571475244576664,41.19607753434289],[-8.571404992297468,41.19617643114812],[-8.571321329348633,41.19621501596014],[-8.570954866720166,41.19619336148219],[-8.56840485510325,41.195968449899866],[-8.568385596404836,41.19608248102871],[-8.567599147370853,41.19599719605533],[-8.56746024036487,41.19605882856313],[-8.567406651475538,41.19604973552772],[-8.566999988557418,41.195932376546196],[-8.566812143219567,41.195817388823336],[-8.566633255629206,41.19595837806214],[-8.566563701210328,41.195919652172215],[-8.566410195192857,41.19595185199918],[-8.56622466573884,41.19596958600234],[-8.566020541774206,41.19596270073084],[-8.565440314896074,41.196072837310815],[-8.565366528787202,41.19611723621623],[-8.565339503556153,41.19621304878764],[-8.565271133166766,41.1962281201304],[-8.565070528446698,41.195894246141904],[-8.564988273341864,41.19584773590018],[-8.564641241939595,41.19558587543392],[-8.564578216034807,41.19555862596428],[-8.564286255911444,41.19533633275063],[-8.56404579209578,41.19513203388455],[-8.563714761257335,41.194931673985344],[-8.56343937612313,41.19474224172994],[-8.563254069625373,41.194914552270234],[-8.562962819273798,41.195133649915796],[-8.562769802999332,41.19526010975695],[-8.562481357491889,41.19534430596335],[-8.56219042639923,41.195470954254716],[-8.561908303707416,41.19562043272038],[-8.561828398544819,41.19572759767703],[-8.561690197245735,41.19601550123554],[-8.561631781082468,41.196101805968],[-8.561541706340448,41.19615706008175],[-8.561217704216851,41.1962161517502],[-8.560948573016487,41.196382378869586],[-8.560846933608296,41.1964732972875],[-8.560804108961767,41.19653876447705],[-8.560736796644782,41.19676882292002],[-8.56068150902496,41.196886997946876],[-8.560548061119471,41.19690288705236],[-8.560346269143404,41.196906475775044],[-8.560279121745282,41.19738058568061],[-8.560176254429539,41.19711460759401],[-8.559441610641265,41.19717208820029],[-8.559039158180969,41.19711171332657],[-8.559008018945168,41.197264734891725],[-8.559004553293883,41.19745799874314],[-8.558931474865004,41.19748576627898],[-8.558706026494717,41.197640943121975],[-8.558618342949936,41.19767257144562],[-8.558184944502761,41.197454892179714],[-8.55792740074706,41.19747613815216],[-8.557814439531043,41.19750615279092],[-8.557626187988856,41.19760197991592],[-8.55751320943401,41.19770780056247],[-8.55740566671451,41.197775606557464],[-8.557111168563655,41.19780768484649],[-8.556737452926269,41.19786082400486],[-8.556583635982273,41.19785511551127],[-8.556457196786281,41.19783152810053],[-8.555948222216971,41.19778571931841],[-8.555920477471043,41.197607646934884],[-8.555810746969163,41.197538898566236],[-8.555494244662977,41.197580037065414],[-8.555410004178748,41.19760172398772],[-8.555501887966573,41.19762500258476],[-8.555295595745886,41.197838443111245],[-8.55510281165654,41.19814898647905],[-8.55499620840054,41.1983843890712],[-8.555563242765086,41.20060821960859],[-8.555604287461772,41.200705401794025],[-8.555895853658466,41.20108664394243],[-8.557204347631462,41.20411360352179],[-8.557456089663093,41.20480266172279],[-8.557496307939628,41.20506615617771],[-8.557507175343346,41.20527041966328],[-8.557499824303763,41.205772969340764],[-8.561789369140994,41.20741368350796],[-8.562719797278044,41.20777117702713],[-8.562769185774266,41.20779350346225],[-8.562814951198611,41.209260108376846],[-8.562821251792085,41.2093844329857],[-8.56288652225557,41.209464142862004],[-8.562925127306706,41.209568628438056],[-8.562956991602897,41.20991768710812],[-8.562945787477608,41.21019064572638],[-8.562923788501125,41.21047156928089],[-8.562960149449463,41.21164926333513],[-8.5616853183279,41.21196549410682],[-8.561736291806975,41.21266591487054],[-8.560549970874861,41.21311857210351],[-8.561236430327268,41.21364671380517],[-8.560740568741172,41.213710511879285],[-8.560389975794543,41.21381527677814],[-8.560458652179072,41.21405164957232],[-8.559613195389277,41.21415573528184],[-8.560269248778116,41.21466463969035],[-8.560040471491398,41.21489167613007],[-8.559594437232228,41.21544709388053],[-8.559204640764266,41.215960695783274],[-8.558977000683418,41.21636321895474],[-8.558890088250797,41.216549026357725],[-8.55906661046248,41.2168480291095],[-8.5591674161611,41.2170558311343],[-8.559215560519492,41.217233754600244],[-8.559302984940922,41.217436922888076],[-8.559316455585664,41.21758282940898],[-8.559368904235622,41.21783510845687],[-8.559380060236492,41.21793744740806],[-8.559373820427309,41.21860719657721],[-8.559412207027446,41.21886097189444],[-8.559527008399503,41.21912985883186],[-8.559591390809143,41.219603235399944],[-8.55954486313832,41.21978259334246],[-8.55949075429775,41.21986022941934],[-8.55935853925965,41.219902049336355],[-8.559119345423118,41.219924548291054],[-8.559213568092954,41.2201276895974],[-8.559259339828323,41.22019784437036],[-8.559395481194962,41.22033690105817],[-8.559492834615638,41.2203984863147],[-8.559605497003027,41.22050359629265],[-8.559698718715069,41.22068135338526],[-8.55978232188783,41.220773062645016],[-8.560016536304984,41.22075499285884],[-8.560199943348472,41.22080914689503],[-8.560251746917508,41.22087117236044],[-8.560297691878862,41.2210043495554],[-8.560381566956055,41.22106508452607],[-8.561117235223838,41.22089945653791],[-8.561610871645376,41.22076165195657],[-8.561761291057145,41.220767298765814],[-8.561904341245448,41.220813766600585],[-8.562119281768892,41.22096603478176],[-8.562228604688883,41.22114291403139],[-8.56231104125193,41.22123796096657],[-8.562493909387827,41.221337221065205],[-8.562563372656493,41.221399990014426],[-8.562115026871119,41.22160786223185],[-8.561669100664655,41.22174819268702],[-8.561502320422326,41.221828957427135],[-8.561097474663493,41.22194301779392],[-8.560950347545235,41.221966078759394],[-8.560756562716742,41.22203973754318],[-8.56109634066143,41.22240673658138],[-8.561187224931436,41.222481044020434],[-8.561462788509786,41.22267558177078],[-8.561811130741384,41.22294692343223],[-8.56187911086773,41.22305670229555],[-8.561896171691004,41.22314830115687],[-8.562046734016684,41.22315763969629],[-8.563824530495355,41.22536788082117],[-8.565135969693886,41.22708687523416],[-8.564979677569994,41.23111950905755],[-8.565943039458993,41.231695744169535],[-8.565527932589685,41.232050453588876],[-8.564927313964992,41.23240009372003],[-8.564768091031457,41.234368093726985],[-8.564721633403856,41.234721052863875],[-8.56988065935633,41.23964107460111],[-8.570115516853328,41.23986978402485],[-8.570271323208697,41.24003234373864],[-8.570727255884602,41.240390763683244],[-8.570431766646397,41.24029987217739],[-8.569998001462725,41.240010604032626],[-8.569816675006047,41.239955018187885],[-8.56950441781913,41.23981835548033],[-8.569328775591101,41.239829379487105],[-8.569016767046314,41.23972845858329],[-8.568841518152839,41.23978036044064],[-8.56861995545349,41.240041150646],[-8.568201225921753,41.24014511618371],[-8.568004970325923,41.240140819736965],[-8.567791540942597,41.24008418590256],[-8.567535700744013,41.23947971723138],[-8.56718794118167,41.23940170873181],[-8.566634812156765,41.23870256145307],[-8.566664621705097,41.23844871278783],[-8.566092765371604,41.23774684647721],[-8.56278869515995,41.23584031917836],[-8.558335234985835,41.23485135053881],[-8.554469215260532,41.233972242288004],[-8.5541890378959,41.23389863018279],[-8.55399311416166,41.23383181830916],[-8.553797746694851,41.233795709416896],[-8.553598428390567,41.23377645254327],[-8.553181943467045,41.233706844612435],[-8.55301393383456,41.23365982769524],[-8.552870374801874,41.233593721561206],[-8.552081343445238,41.23297703789873],[-8.550123367203788,41.23160321920824],[-8.548763635281903,41.23096238188462],[-8.548366920753047,41.231090779337364],[-8.547905381061973,41.23124830987173],[-8.54768653100902,41.23138245533809],[-8.547540153231939,41.23143421459033],[-8.54667431948522,41.23157970260919],[-8.54584546061264,41.23176330971309],[-8.545687082323159,41.23167158831872],[-8.54512570397518,41.23156393750729],[-8.544806338711053,41.2314966583578],[-8.543478067853131,41.232190413281174],[-8.543355926056545,41.232513020240326],[-8.543354306162042,41.23263377017377],[-8.543488095758768,41.232780782890906],[-8.543138726371884,41.23296823786619],[-8.542947347713934,41.23328181290748],[-8.543972661047423,41.23385359650813],[-8.542303715126113,41.23590539391672],[-8.538347342941538,41.24075619438624],[-8.537388582235174,41.24217673549517],[-8.537154733322325,41.24251800790931],[-8.536855854343552,41.243473495159705],[-8.53638705333834,41.2446752146467],[-8.535981281305718,41.245576151482155],[-8.535796188749256,41.245856741988376],[-8.535144091240642,41.24688099700787],[-8.534618752834442,41.247628466770315],[-8.53359104792034,41.25046025218075],[-8.532085834708468,41.254610722974476],[-8.53127478116336,41.25661235812547],[-8.531169082436081,41.25687015291013],[-8.530951176995648,41.257236473148204],[-8.53059626360808,41.257932012181776],[-8.53041743887182,41.25835024161091],[-8.530238712055825,41.2587245343957],[-8.530148091792244,41.25901045749452],[-8.530032536752005,41.25941406133191],[-8.529925823210103,41.25985841817675],[-8.529849405935641,41.26026206786131],[-8.529702461822206,41.26080282064179],[-8.52955079073309,41.2611939442011],[-8.529412335149921,41.26150164228107],[-8.528964125412175,41.26258080102857],[-8.528876300042,41.26283690764995],[-8.528461272208657,41.263485733355665],[-8.528270042937818,41.26377173456735],[-8.52808926535623,41.26402897621606],[-8.527899150896973,41.26422321573327],[-8.527587878075884,41.26451070605097],[-8.527123777170376,41.264922801811174],[-8.5269936300896,41.26506812368939],[-8.526819984684767,41.265224583790925],[-8.526535228410912,41.26539834674489],[-8.5261842763785,41.26553794530307],[-8.525996702708776,41.26560108004298],[-8.525546619760066,41.26568816209557],[-8.525336614478274,41.26577162714573],[-8.52522110224738,41.265852157913116],[-8.525065086633527,41.2660238615325],[-8.52498269614242,41.26617433099558],[-8.524795719577495,41.266217465236146],[-8.523581051192263,41.26638621124826],[-8.523273108151736,41.26649621044273],[-8.52310271946152,41.266599437310624],[-8.520312468351571,41.269024602442215],[-8.519728486834234,41.26843383915605],[-8.519653847408472,41.26856581924417],[-8.519850439602118,41.26887372622345],[-8.518914617361402,41.26980934496196],[-8.518039284250555,41.270868555873314],[-8.517087892581229,41.272087479534804],[-8.516269688348157,41.27308886022301],[-8.515775668056964,41.273813807346414],[-8.515604918007169,41.27414726019152],[-8.515616725140132,41.276158995612725],[-8.515579336961022,41.27969204418468],[-8.515628732919035,41.281558686582535],[-8.515584415083417,41.283830825345994],[-8.515264273076617,41.28580540111867],[-8.515528865798025,41.28642199540703],[-8.51565554219875,41.286426904994926],[-8.515850824275669,41.28616810122638],[-8.516470393442,41.286310476325],[-8.51747608179478,41.28653589701659],[-8.517956232564018,41.286775296418426],[-8.518270424583037,41.28696687072853],[-8.51852692845899,41.287169308152585],[-8.51928603400844,41.28752051237403],[-8.51959969492505,41.28774260079621],[-8.519898860359397,41.287814221761266],[-8.52011005221848,41.287773413775],[-8.520262817988579,41.28730519894788],[-8.520661224313876,41.287194873876054],[-8.520593399824076,41.28665451140107],[-8.521013223718576,41.28662788951067],[-8.52176304285158,41.28730477651414],[-8.52221464419055,41.28757264098897],[-8.52218690874662,41.287607883360394],[-8.52274116801201,41.28802134712684],[-8.523582071540085,41.28750737788566],[-8.52408673686641,41.287235013551715],[-8.523983927633155,41.28712631961743],[-8.523819788941577,41.286824396518426],[-8.52383501758727,41.28671713771894],[-8.524461573049855,41.28658891791663],[-8.524786911109148,41.28653652828699],[-8.525301550502663,41.28643556294653],[-8.525845151686191,41.28635842865961],[-8.526450708844333,41.28626137993423],[-8.526802674537683,41.28617816603145],[-8.527520703730747,41.286028802703946],[-8.527642400991837,41.28593261205744],[-8.528322923108464,41.28571218897565],[-8.5286043482453,41.2856404029774],[-8.528802402861213,41.285541343848955],[-8.528979223566871,41.28548821558438],[-8.529259054032973,41.2855114687737],[-8.529398795103276,41.285572033320676],[-8.529556721639379,41.285590977274495],[-8.52993316960014,41.28556006739169],[-8.5300557362182,41.28552355346568],[-8.53024232569604,41.28549844744008],[-8.530265890471851,41.28543358571949],[-8.53044090260313,41.28537222624513],[-8.53044038139304,41.285233371292],[-8.530465669241662,41.285149558827854],[-8.530596055172818,41.28482944751021],[-8.530692218169937,41.284865411214426],[-8.53088088593053,41.284903756498295],[-8.531089189450505,41.28490931157314],[-8.531153776120329,41.28489077201328],[-8.531506866151862,41.284663125702885],[-8.531536893198867,41.2845827415879],[-8.531394728811456,41.28459261495514],[-8.531346308013939,41.284567027864234],[-8.531207969068403,41.28441185410066],[-8.531165819531413,41.28429187083046],[-8.531103079540289,41.284207174904545],[-8.531230282551405,41.28409990159755],[-8.530939041752804,41.283882411619054],[-8.531200184992676,41.28358634614332],[-8.531564708296766,41.28332555897153],[-8.531163657596979,41.282796017677036],[-8.531047348292155,41.28269975467406],[-8.530424312767243,41.28228615011498],[-8.531177985708977,41.282163387779285],[-8.531986971745246,41.28208833013081],[-8.533102413910466,41.28208085108172],[-8.534273155429908,41.28211424103506],[-8.534682116746005,41.282065985462296],[-8.5351017935806,41.28196998065438],[-8.535327544435507,41.28220905137549],[-8.535703138797015,41.28204868715026],[-8.536069006921629,41.28187925883438],[-8.536155464402718,41.281847173279424],[-8.536310113915302,41.2817438528109],[-8.536417357069517,41.28144143875134],[-8.536416272316801,41.28135695106725],[-8.536464476944351,41.281235445653714],[-8.536815833641732,41.281049979847715],[-8.537220224169783,41.280912689992206],[-8.537135189176588,41.28078534809863],[-8.537819801015997,41.28046364398447],[-8.537984193486574,41.28026151038886],[-8.538062090289188,41.28003257919403],[-8.538125147237325,41.27998007917772],[-8.538354618279653,41.27993323424539],[-8.538548707131755,41.27947627098964],[-8.539556684895317,41.27856036846332],[-8.540040333376474,41.27812700905254],[-8.53997698463696,41.27799245493692],[-8.539551063061117,41.27748043176455],[-8.539546551144623,41.2773903564615],[-8.539478147581699,41.276951272707905],[-8.539361075635648,41.276737879125356],[-8.538227779600975,41.27576834330539],[-8.537984178877979,41.2755342462419],[-8.537852922663937,41.27513431464062],[-8.537426120966018,41.27465033261546],[-8.538796730318758,41.27412009031088],[-8.539814884164404,41.27364447657798],[-8.540744408236954,41.27422252396134],[-8.540916084923824,41.27436705607793],[-8.541257782001447,41.274809283714966],[-8.541530062179067,41.27491882273602],[-8.541902494385631,41.27495306018745],[-8.543659568511746,41.275085092042346],[-8.544162445934766,41.2752440122414],[-8.544356968995885,41.27477224887372],[-8.545460745582286,41.27512619505159],[-8.545599100548236,41.275083388807246],[-8.545938990777994,41.275072213689164],[-8.546091035365393,41.275106511826145],[-8.546332492899651,41.27518777698517],[-8.546529523036845,41.27520023281796],[-8.546850422971808,41.275146093157346],[-8.547193456057398,41.2751100155055],[-8.54758404727107,41.27500351416268],[-8.547811356167825,41.274935496541175],[-8.548329267480572,41.274891317375456],[-8.548914512208553,41.274871568647974],[-8.549009581636227,41.274852181417565],[-8.550240933168212,41.27445994917443],[-8.551334324069368,41.273811283489735],[-8.551923609341337,41.27360018858861],[-8.552095004330162,41.273560065438716],[-8.552508523059641,41.273539650098606],[-8.552629209156628,41.27351856201161],[-8.552888560579937,41.2734099519292],[-8.553777757998024,41.273206288655516],[-8.553828185981818,41.273179362883276],[-8.553957878798972,41.27304183090631],[-8.554137538263664,41.27299573715013],[-8.554314124161268,41.27292902399107],[-8.554865055524136,41.27270083654991],[-8.555302354733126,41.27257750447242],[-8.555608923387505,41.27246449483222],[-8.55573857559842,41.272398260557644],[-8.5558453372852,41.27229311130111],[-8.555977320865313,41.2720983200676],[-8.556140006706734,41.27195450016553],[-8.55635338550498,41.271809879595196],[-8.556397623993771,41.27175148333767],[-8.556426142962705,41.27162469690745],[-8.556499183184314,41.2716082144992],[-8.556481843351497,41.271545979262264],[-8.556483799091094,41.271358424052885],[-8.556514245061098,41.271058355902206],[-8.556547676505042,41.27092964787735],[-8.556774298607468,41.27036045866857],[-8.556909652060638,41.2699224672177],[-8.557051873366163,41.269880976382375],[-8.557101496182558,41.269804171673336],[-8.557079293824883,41.26972970242628],[-8.556921112034242,41.269389402761796],[-8.556827204656791,41.269096856809014],[-8.556776363120107,41.26902258293446],[-8.556597119641346,41.26891222623964],[-8.55634470675307,41.26877707602904],[-8.55604995807182,41.26855273769552],[-8.556230712086672,41.268523776992765],[-8.556560449591805,41.26843867991652],[-8.556930707677761,41.26833166962745],[-8.556809119271755,41.26657223140965],[-8.558867030527827,41.26646954907777],[-8.558977062734956,41.2679897795057],[-8.559160643103455,41.26958120615085],[-8.559503705039814,41.269267473924856],[-8.559760577958599,41.26889815223665],[-8.560321604843113,41.26835279009784],[-8.560561521993098,41.26804292737994],[-8.560357949351571,41.267702222802285],[-8.55957657465055,41.266469860138635],[-8.55987469654179,41.265102472869486],[-8.560189981214974,41.26484745860587],[-8.560487161731594,41.26485382030321],[-8.560580480619755,41.26461213191798],[-8.560831512412346,41.26425385758673],[-8.560706739195446,41.26392162349584],[-8.560549959868979,41.26369424751039],[-8.560271518568033,41.2634196023496],[-8.560280774583696,41.263223577409924],[-8.561343888524217,41.263352766723],[-8.561717918790754,41.263415240727035],[-8.561957869799391,41.26349222893612],[-8.562652604776744,41.26262626602308],[-8.562694617584238,41.26254942508285],[-8.563344001130416,41.26163439036255],[-8.564700132225699,41.261724091951876],[-8.564974707378003,41.26175759071963],[-8.565225189297168,41.26136227539157],[-8.56563223500123,41.260566954442204],[-8.566497430798771,41.25902140758018],[-8.566903787382405,41.258305325873486],[-8.567437944477595,41.25725012894364],[-8.567884180392392,41.25738153668253],[-8.568673590147986,41.25764924529472],[-8.569644003189296,41.25855787795832],[-8.569669123773853,41.258601516089314],[-8.56959848383053,41.25882852576615],[-8.569852208939666,41.258877897936685],[-8.570333438580676,41.25910059917735],[-8.570403958291024,41.259127641079466],[-8.570471638829732,41.25922919442993],[-8.57053169042537,41.25942095372944],[-8.571795078248012,41.259451830512646],[-8.572517094686976,41.25948100608734],[-8.57377235923224,41.259477017129],[-8.573768779312585,41.25893180976965],[-8.575151901300787,41.25899442191538],[-8.575037646696352,41.259225883830865],[-8.574965978113116,41.25954423293943],[-8.574913845247181,41.25987414854479],[-8.574864729164856,41.26029908728089],[-8.574842224082621,41.2604271096919],[-8.576123829690184,41.26042024412916],[-8.576116051016882,41.26061063347706],[-8.576168194372308,41.26083430313933],[-8.576175100517885,41.26125107155312],[-8.576204913488542,41.26168130308626],[-8.576197524023657,41.262001286398075],[-8.576493746836121,41.26235009021135],[-8.576535148884952,41.26258653562561],[-8.576525507561794,41.26288105203054],[-8.576542001921268,41.26305504305537],[-8.576329283029288,41.26311316119436],[-8.576168334729374,41.263242792676],[-8.576029240132307,41.26397727084115],[-8.576112361909402,41.264779628266545],[-8.576559864366336,41.26575570947816],[-8.576679947188198,41.265857351630025],[-8.576845221716896,41.26614684843568],[-8.57684009646276,41.26649819968531],[-8.576930878836777,41.26670364484374],[-8.577050547805642,41.266891312335744],[-8.577236853692307,41.26710730102761],[-8.578765122870633,41.26574978486089],[-8.578815317119094,41.265899149133844],[-8.578801412720326,41.26624656361544],[-8.578945109694036,41.26631189445183],[-8.579297318937787,41.266612908443605],[-8.579645865427375,41.26695597336481],[-8.580162974008498,41.2677100196981],[-8.580018624501804,41.2679231012721],[-8.579565041831943,41.267915808286006],[-8.58086875671496,41.26819699626156],[-8.580206987416018,41.26912065591812],[-8.580195415475291,41.26916169597655],[-8.580480340330402,41.26929773809251],[-8.580910706116034,41.26957976587259],[-8.581272887203141,41.270049739616006],[-8.581449013799407,41.270223587212996],[-8.581162928196107,41.271352806999495],[-8.58236831858426,41.27206809136613],[-8.582725797211024,41.272537107107496],[-8.583120727860972,41.272758085970715],[-8.583740937733769,41.273751608622504],[-8.583853820806606,41.274436200313325],[-8.583657909979658,41.274648652480806],[-8.583227975401329,41.275181337035804],[-8.583184447084237,41.27557471289961],[-8.58427876407646,41.27706153290793],[-8.585105511722185,41.27673429580275],[-8.586147031016427,41.276499440518194],[-8.586629564188055,41.27666765004369],[-8.587010493064524,41.27705488378705],[-8.586815577431901,41.277199375677206],[-8.587483467285095,41.27770929279321],[-8.589336516767734,41.27780799909095],[-8.590613618797468,41.278973599833556],[-8.591152865887036,41.27975414129133],[-8.59126273534215,41.28023532845285],[-8.591284810294729,41.280712850858116],[-8.591395649589717,41.28100196627502],[-8.591198878227923,41.281956570527804],[-8.591152007724387,41.28234950657971],[-8.591012002492684,41.28234164375421],[-8.590983123935489,41.28246371989703],[-8.591014727244442,41.28254462168756],[-8.59111132960437,41.28266871084146],[-8.591142534122213,41.28278114222741],[-8.591142956431641,41.28294806136185],[-8.591120117918495,41.28317137871248],[-8.591129796618457,41.28335938205214],[-8.591096384960636,41.28427594505423],[-8.591089553902792,41.28478238643629],[-8.591123923224261,41.284930050143515],[-8.59180980690086,41.28518567538024],[-8.592815249481326,41.28362512159126],[-8.59303177503436,41.283695637175846],[-8.593487714850506,41.283038342108775],[-8.59426822199513,41.28221968401646],[-8.594489636539622,41.28230433002569],[-8.594879235725195,41.28254136094011],[-8.5951288718031,41.28266003265973],[-8.595248748326881,41.28270176567236],[-8.59542272241971,41.28259417253483],[-8.595822556979272,41.28239900656444],[-8.596052965800526,41.28226472151764],[-8.596161186387263,41.282182389890224],[-8.59635595190449,41.282000797499485],[-8.596383824876078,41.281956212015025],[-8.596578159163748,41.28188104468882],[-8.59685337496726,41.28185592409557],[-8.597116118383076,41.28176142387695],[-8.597385883372324,41.28168478509698],[-8.597819842119593,41.281503521031105],[-8.597854459078796,41.2810004343593],[-8.597869912875792,41.280862600277445],[-8.597935387641172,41.28054803053856],[-8.598717403522697,41.28078106741952],[-8.598795279464456,41.28077107836333],[-8.599509960987652,41.280555363837266],[-8.599589589711687,41.280523712146106],[-8.600056820672563,41.28038889411197],[-8.600176132091777,41.280266631595566],[-8.600289581047877,41.28020008885781],[-8.600400749017654,41.28016470784903],[-8.600574598758923,41.28014134399265],[-8.600863992273231,41.28016942933887],[-8.600919127737324,41.280103494769385],[-8.601050372037735,41.280074639701276],[-8.601290692003303,41.280067995408054],[-8.601585946568948,41.28012767950399],[-8.601877770853434,41.28023268932737],[-8.602013664298727,41.2803284236548],[-8.602068156318373,41.28070165177281],[-8.602065049314511,41.280832048207245],[-8.60203194818437,41.28109747247457],[-8.602047465134703,41.28131051601164],[-8.602069172316268,41.28141599230009],[-8.602291062722152,41.28160855416911],[-8.602646516335678,41.28222295128283],[-8.602516545277094,41.282288898283966],[-8.602548127185052,41.282458948001654],[-8.602565672442543,41.28279199679501],[-8.602585655443043,41.28302379113751],[-8.602691691684592,41.283147253996596],[-8.603001305749943,41.28302254373914],[-8.604193585292471,41.28369788156537],[-8.603771579910195,41.284066547512325],[-8.604588794653742,41.28468059915241],[-8.603912043629087,41.285358620542176],[-8.604687694740297,41.28576195785902],[-8.60474686537445,41.2862053939125],[-8.60607918200261,41.28765052448013],[-8.607413305821648,41.288592966498086],[-8.608030619293057,41.289035326012666],[-8.60818343157461,41.28920963245409],[-8.608275201790923,41.28945559530214],[-8.608264274511022,41.29009393223599],[-8.608273800644135,41.29037209292961],[-8.608315040793137,41.290568346203635],[-8.608319271656768,41.29066145855248],[-8.608219457918372,41.29079230000198],[-8.607828826411374,41.29123277596806],[-8.608437080897339,41.291508779358026],[-8.608465398910269,41.29147757113907],[-8.608926320144938,41.291686605064996],[-8.6089740176858,41.291629295561194],[-8.609183528619772,41.29173274404353],[-8.609302480467518,41.29159175869049],[-8.609508757311174,41.291690395542226],[-8.609283445645406,41.29188608543793],[-8.609873948205376,41.29216835846742],[-8.609823737666641,41.29228432808907],[-8.610250789891994,41.292337066260636],[-8.611275955266173,41.29245731364426],[-8.611610948699324,41.292431848221966],[-8.611863855919983,41.29229300009919],[-8.612334884301172,41.29191151855201],[-8.61259003875982,41.291800930659484],[-8.612715277888912,41.29181390165089],[-8.612922180095453,41.291895258034536],[-8.614013136816627,41.29246817967845],[-8.615145527403723,41.29309393105273],[-8.616299253344936,41.29369711993028],[-8.61663532682917,41.293809080743166],[-8.619453409347496,41.29439080228442],[-8.619773754266827,41.2945032876733],[-8.619983037957917,41.29466849832105],[-8.620466359966091,41.29515328576462],[-8.621169562239928,41.295124166626024],[-8.621776949438962,41.295368845965896],[-8.62177242090179,41.2952898125322],[-8.621799047012605,41.295210912465194],[-8.622993810079004,41.29377003284005],[-8.623511281054832,41.29353911918996],[-8.623655244380993,41.29312404829005],[-8.623532024196274,41.291757407217744],[-8.623456216373212,41.29080474682941],[-8.623217648352334,41.28990878592584],[-8.62314075619147,41.28955741612732],[-8.623164448669604,41.28940622762689],[-8.623154643654484,41.28927679165077],[-8.623193268330521,41.289174791312256],[-8.623188106227053,41.28893260734478],[-8.623299941688083,41.28870729692266],[-8.623473509658105,41.2885160310174],[-8.623612043010555,41.28831680950067],[-8.623637582232664,41.2882367457137],[-8.623793538013395,41.28794182305455],[-8.623911704460589,41.28773395845537],[-8.624161529578402,41.28734994423715],[-8.624239076479231,41.28712172039726],[-8.624391167395762,41.28680592825827],[-8.624488068945574,41.28656411721858],[-8.62456896348041,41.28632174053322],[-8.624662897888125,41.286081923806876],[-8.62481322174703,41.28562801593277],[-8.624816344111181,41.28550329519645],[-8.624862068273913,41.285281783415115],[-8.62519940982033,41.284949707914826],[-8.626230951078037,41.28438981556572],[-8.627372151090064,41.28403239214357],[-8.627818556604065,41.2838084315226],[-8.629225395623951,41.281857840657004],[-8.63007353126119,41.28075180531888],[-8.630270050475945,41.28074284677461],[-8.630424564810586,41.280703285066394],[-8.630552180286184,41.280706151689515],[-8.630781824864213,41.280563613017414],[-8.630930687057175,41.280488139496065],[-8.63096029579154,41.28039571980613],[-8.631181506255347,41.28024340047874],[-8.631391482198833,41.28015208835749],[-8.631440420829636,41.28008947595607],[-8.631388036128198,41.280029202003924],[-8.631405005626693,41.279984916368306],[-8.631492983495443,41.27995472818939],[-8.631776252828265,41.27989578131442],[-8.631871557461094,41.279886995493136],[-8.632188503248281,41.279892639750315],[-8.632551913075005,41.27994931068944],[-8.63272572216869,41.27992064454659],[-8.633056150586283,41.27989443964398],[-8.633133605802623,41.2799560482143],[-8.63319593014274,41.279973789403726],[-8.633545900822325,41.27999026882397],[-8.633694803522124,41.279950988239925],[-8.63374156088585,41.27980708225835],[-8.63399411164805,41.279726836328344],[-8.634281883636254,41.27967974737882],[-8.634344467746779,41.27965389951795],[-8.634767507446952,41.279316022813276],[-8.635662913965632,41.279218995694514],[-8.635859417726572,41.2791776172342],[-8.636050391513427,41.27916192623256],[-8.636373637940883,41.279071905547006],[-8.6367978199099,41.2789147234153],[-8.637201983012645,41.278916368787925],[-8.637641514836167,41.27881539228775],[-8.637947135496573,41.27880783332449],[-8.6382642498341,41.278789511777205],[-8.638625518637864,41.27873929636072],[-8.638950988746902,41.278736421572525],[-8.639248559842887,41.27872214230949],[-8.639717361670778,41.27867198729792],[-8.639900177549734,41.2786359755255],[-8.640364801999526,41.278584759370716],[-8.640676400671211,41.27853322745924],[-8.64099241727341,41.27849644202447],[-8.641634147277687,41.27839671908102],[-8.641925211699435,41.27834455055822],[-8.64229527425847,41.27824440805929],[-8.642423345001536,41.278106793832535],[-8.645903985303162,41.27737050984398],[-8.648824787428623,41.27651445699027],[-8.650962618510983,41.275545980137686],[-8.652720609095716,41.27415753366516],[-8.653370743854364,41.27145148321984],[-8.653589681491134,41.270305987202434],[-8.653623519524272,41.270060200650384],[-8.653504947367244,41.26981249909094],[-8.653496009344009,41.269709349974086],[-8.653515504734273,41.26947452689745],[-8.65354667084683,41.269237491852664],[-8.653636720835042,41.26876688905544],[-8.65369501455761,41.26853477182026],[-8.653739849776173,41.26830595690877],[-8.65372691820167,41.268060653658985],[-8.653648903458418,41.267930448705194],[-8.65363999247259,41.26787502242769],[-8.653715660047544,41.267606541601744],[-8.653703466212791,41.26697541179707],[-8.653555453860106,41.26658161647186],[-8.653392744437355,41.26621606859467],[-8.65329021960347,41.26586978940125],[-8.653122796407295,41.265330397258914],[-8.653931966194646,41.26400934196335],[-8.65345121503589,41.26365505494807],[-8.652995142200815,41.263356294854034],[-8.652450281314959,41.262876327378834],[-8.652089169679815,41.26246827927089],[-8.651647216298606,41.262083100961405],[-8.651185497218334,41.26153675406284],[-8.650957198981596,41.26118752404438],[-8.6505927164434,41.26044183406586],[-8.65289062386298,41.25950600538084],[-8.652549996482698,41.25873040716027],[-8.652818268123422,41.258629876786955],[-8.653433906755179,41.25844277518417],[-8.655418763628118,41.25777852751381],[-8.656394778164243,41.25737420732664],[-8.656442445551267,41.257247122636564],[-8.657623972888917,41.256046704529915],[-8.657794908696351,41.256189987225014],[-8.657875003054766,41.25634269152284],[-8.658000155935019,41.25680132628111],[-8.658084891716552,41.25693716873194],[-8.658172747107729,41.25701582483209],[-8.658360896911303,41.25713282418123],[-8.659873577765778,41.25785161792032],[-8.661112044505254,41.258447483679625],[-8.661754291082836,41.25879289025028],[-8.662053099968453,41.258987803560096],[-8.662322154036179,41.2591919434763],[-8.66249445829598,41.25942777575194],[-8.662778545071692,41.25979310938101],[-8.663063114781751,41.260187971957926],[-8.663567972710833,41.26096539155026],[-8.66371574193366,41.261264362377396],[-8.663835564216491,41.26147279339136],[-8.664013573914056,41.261733174777966],[-8.664189367735633,41.26189794447149],[-8.664432278186492,41.262024586643946],[-8.66455096572042,41.26206374455599],[-8.66484137900683,41.26223509740491],[-8.665853603875028,41.262435781609845],[-8.66689572948067,41.262424547340856],[-8.667298952296246,41.262367741811765],[-8.667693259058323,41.26234339489359],[-8.668120876824187,41.26230826871271],[-8.668493065976064,41.26214814886792],[-8.674963116787719,41.26130821510818],[-8.675461707858368,41.261357093117894],[-8.676436281442887,41.26159027575519],[-8.676694359652602,41.26160166159287],[-8.677015856854482,41.26164776448994],[-8.677678345251405,41.26158888893039],[-8.682773531668671,41.261295276801725],[-8.686841418201938,41.25865391304828],[-8.687075006401628,41.25802970676667],[-8.687146339696792,41.25767559396193],[-8.687325906736971,41.25735066852285],[-8.687712253826477,41.25677335388905],[-8.687855728235071,41.25661139336348],[-8.688013513628565,41.25640579156635]]],"type":"Polygon"},"properties":{"geo_point_2d":{"lon":-8.601340854853591,"lat":41.24494854198899},"year":"2024","dis_code":"13","dis_name":"Porto","con_code":"1306","con_name":"Maia","con_name_upper":"MAIA","con_name_lower":"maia","con_area_code":"PRT","con_type":"municipality"}}]}